CZ-2C R/B               
1 54039U 22132E   26033.93170425  .00040868  00000+0  52464-3 0  9995
2 54039  97.2948  36.2802 0017364 212.0842 147.9358 15.58838696184956
GSLV R/B                
1 54149U 22138AN  26033.41776943  .00003491  00000+0  30400-3 0  9990
2 54149  87.3858 178.1657 0019362 281.1327  78.7727 14.96496462178650
XRISM                   
1 57800U 23137A   26033.63572376  .00006913  00000+0  39744-3 0  9997
2 57800  31.0018 150.3112 0008020  48.0881 312.0440 15.11045204132482
ACS3                    
1 59588U 24077B   26033.48458483  .00016985  00000+0  14114-1 0  9993
2 59588  97.2263 342.5097 0045601 189.6235 170.4059 13.88119696 89315
SZ-21 MODULE            
1 66515U 25246C   26034.08880481  .00032260  00000+0  30952-3 0  9998
2 66515  41.4757  55.9274 0003288 269.9133  90.1331 15.65925225 12641
