CCSDS_OMM_VERS = 2.0
CREATION_DATE  = 
ORIGINATOR     = 

OBJECT_NAME    = CZ-2C R/B
OBJECT_ID      = 2022-132E
CENTER_NAME    = EARTH
REF_FRAME      = TEME
TIME_SYSTEM    = UTC
MEAN_ELEMENT_THEORY = SGP/SGP4

EPOCH          = 2026-02-02T22:21:39.247200
MEAN_MOTION    = 15.58838696
ECCENTRICITY   = .0017364
INCLINATION    = 97.2948
RA_OF_ASC_NODE = 36.2802
ARG_OF_PERICENTER = 212.0842
MEAN_ANOMALY   = 147.9358

EPHEMERIS_TYPE = 0
CLASSIFICATION_TYPE = U
NORAD_CAT_ID   = 54039
ELEMENT_SET_NO = 999
REV_AT_EPOCH   = 18495
BSTAR          = .52464E-3
MEAN_MOTION_DOT = .40868E-3
MEAN_MOTION_DDOT = 0

CCSDS_OMM_VERS = 2.0
CREATION_DATE  = 
ORIGINATOR     = 

OBJECT_NAME    = GSLV R/B
OBJECT_ID      = 2022-138AN
CENTER_NAME    = EARTH
REF_FRAME      = TEME
TIME_SYSTEM    = UTC
MEAN_ELEMENT_THEORY = SGP/SGP4

EPOCH          = 2026-02-02T10:01:35.278752
MEAN_MOTION    = 14.96496462
ECCENTRICITY   = .0019362
INCLINATION    = 87.3858
RA_OF_ASC_NODE = 178.1657
ARG_OF_PERICENTER = 281.1327
MEAN_ANOMALY   = 78.7727

EPHEMERIS_TYPE = 0
CLASSIFICATION_TYPE = U
NORAD_CAT_ID   = 54149
ELEMENT_SET_NO = 999
REV_AT_EPOCH   = 17865
BSTAR          = .30399522E-3
MEAN_MOTION_DOT = .3491E-4
MEAN_MOTION_DDOT = 0

CCSDS_OMM_VERS = 2.0
CREATION_DATE  = 
ORIGINATOR     = 

OBJECT_NAME    = XRISM
OBJECT_ID      = 2023-137A
CENTER_NAME    = EARTH
REF_FRAME      = TEME
TIME_SYSTEM    = UTC
MEAN_ELEMENT_THEORY = SGP/SGP4

EPOCH          = 2026-02-02T15:15:26.532864
MEAN_MOTION    = 15.11045204
ECCENTRICITY   = .00080208
INCLINATION    = 31.0018
RA_OF_ASC_NODE = 150.3112
ARG_OF_PERICENTER = 48.0881
MEAN_ANOMALY   = 312.0440

EPHEMERIS_TYPE = 0
CLASSIFICATION_TYPE = U
NORAD_CAT_ID   = 57800
ELEMENT_SET_NO = 999
REV_AT_EPOCH   = 13248
BSTAR          = .39743928E-3
MEAN_MOTION_DOT = .6913E-4
MEAN_MOTION_DDOT = 0

CCSDS_OMM_VERS = 2.0
CREATION_DATE  = 
ORIGINATOR     = 

OBJECT_NAME    = ACS3
OBJECT_ID      = 2024-077B
CENTER_NAME    = EARTH
REF_FRAME      = TEME
TIME_SYSTEM    = UTC
MEAN_ELEMENT_THEORY = SGP/SGP4

EPOCH          = 2026-02-02T11:37:48.129312
MEAN_MOTION    = 13.88119696
ECCENTRICITY   = .00456012
INCLINATION    = 97.2263
RA_OF_ASC_NODE = 342.5097
ARG_OF_PERICENTER = 189.6235
MEAN_ANOMALY   = 170.4059

EPHEMERIS_TYPE = 0
CLASSIFICATION_TYPE = U
NORAD_CAT_ID   = 59588
ELEMENT_SET_NO = 999
REV_AT_EPOCH   = 8931
BSTAR          = .14113614E-1
MEAN_MOTION_DOT = .16985E-3
MEAN_MOTION_DDOT = 0

CCSDS_OMM_VERS = 2.0
CREATION_DATE  = 
ORIGINATOR     = 

OBJECT_NAME    = SZ-21 MODULE
OBJECT_ID      = 2025-246C
CENTER_NAME    = EARTH
REF_FRAME      = TEME
TIME_SYSTEM    = UTC
MEAN_ELEMENT_THEORY = SGP/SGP4

EPOCH          = 2026-02-03T02:07:52.735584
MEAN_MOTION    = 15.65925225
ECCENTRICITY   = .0003288
INCLINATION    = 41.4757
RA_OF_ASC_NODE = 55.9274
ARG_OF_PERICENTER = 269.9133
MEAN_ANOMALY   = 90.1331

EPHEMERIS_TYPE = 0
CLASSIFICATION_TYPE = U
NORAD_CAT_ID   = 66515
ELEMENT_SET_NO = 999
REV_AT_EPOCH   = 1264
BSTAR          = .30952E-3
MEAN_MOTION_DOT = .3226E-3
MEAN_MOTION_DDOT = 0

